DUBAISAT-1              
1 35682U 09041B   26158.11772024  .00000878  00000+0  13767-3 0  9993
2 35682  98.0040 291.4868 0011745 102.2769 257.9755 14.75108062903613
OCEANSAT-2              
1 35931U 09051A   26158.26302521  .00000143  00000+0  12372-3 0  9994
2 35931  98.2323 146.1045 0014597 266.4813  93.4684 13.99663733877946
WORLDVIEW-2 (WV-2)      
1 35946U 09055A   26158.00422425  .00000121  00000+0  54685-4 0  9992
2 35946  98.4736 231.5940 0003217 245.6430 114.4421 14.37896422874188
SMOS                    
1 36036U 09059A   26157.48718443  .00000267  00000+0  99007-4 0  9994
2 36036  98.4426 344.9790 0001340  91.3547 268.7794 14.39766844871917
YAOGAN-7                
1 36110U 09069A   26157.66303289  .00000535  00000+0  81101-4 0  9990
2 36110  98.0084  43.5945 0025979  74.1214 286.2857 14.77999154888078
TANDEM-X                
1 36605U 10030A   26157.45519333  .00000875  00000+0  44865-4 0  9998
2 36605  97.4458 165.3146 0001794  98.1824 261.9614 15.19152152885011
CARTOSAT-2B             
1 36795U 10035A   26158.25683584  .00000967  00000+0  13911-3 0  9991
2 36795  97.9952 208.8695 0010375 217.9785 142.0695 14.78650270858385
YAOGAN-10               
1 36834U 10038A   26158.32654396  .00002698  00000+0  32017-3 0  9996
2 36834  97.8979 181.8102 0001723  88.1800  42.0405 14.85322460855743
COSMO-SKYMED 4          
1 37216U 10060A   26158.24964189  .00000070  00000+0  15363-4 0  9999
2 37216  97.8888 341.9934 0001425  83.5590 276.5785 14.82159734843092
RESOURCESAT-2           
1 37387U 11015A   26157.95390565  .00000085  00000+0  59077-4 0  9993
2 37387  98.7645 225.4660 0010147 288.5617  71.4458 14.21604292784722
HAIYANG-2A              
1 37781U 11043A   26158.28401473 -.00000158  00000+0 -12115-3 0  9994
2 37781  99.3395 161.1783 0006243 111.1043 249.0774 13.74549310745296
RASAT                   
1 37791U 11044D   26158.29395870  .00000528  00000+0  10016-3 0  9997
2 37791  98.0570 249.8420 0019472 221.2540 193.5041 14.68157208791738
SRMSAT                  
1 37841U 11058D   26157.27188351  .00000385  00000+0  65061-4 0  9991
2 37841  19.9704 125.5359 0011947  84.3565  18.6414 14.11573396756279
PLEIADES 1A             
1 38012U 11076F   26158.25304150  .00000380  00000+0  91639-4 0  9993
2 38012  98.1972 233.4889 0001482  96.8767 356.1046 14.58565114770545
ZIYUAN 1-02C (ZY 1-02C) 
1 38038U 11079A   26158.27115995  .00000425  00000+0  15401-3 0  9995
2 38038  98.4068 225.7866 0006158 349.5353  98.7574 14.38206923757789
ARIRANG-3 (KOMPSAT-3)   
1 38338U 12025B   26158.24710593  .00000535  00000+0  11549-3 0  9993
2 38338  98.1172 115.8790 0006229 134.9916 225.1792 14.62197795749894
EXACTVIEW-1 (ADS-1B)    
1 38709U 12039C   26158.05951927  .00000129  00000+0  75160-4 0  9996
2 38709  98.9766 275.2216 0010613 195.2946 164.7913 14.24981592721260
SPOT 6                  
1 38755U 12047A   26158.25062784  .00000346  00000+0  84314-4 0  9994
2 38755  98.2116 225.6755 0001439  93.2530 266.8834 14.58557324731606
PLEIADES 1B             
1 39019U 12068A   26158.26952637  .00000387  00000+0  93056-4 0  9995
2 39019  98.1942 233.4575 0001576  95.6797 264.4582 14.58554881719409
GOKTURK 2               
1 39030U 12073A   26158.24787569  .00000682  00000+0  10708-3 0  9992
2 39030  97.6823 356.1773 0001943  62.0161 298.1246 14.75533148723046
LANDSAT 8               
1 39084U 13008A   26157.93023969  .00000331  00000+0  83481-4 0  9992
2 39084  98.2302 228.1869 0001459  96.6119 263.5245 14.57111856696408
SARAL                   
1 39086U 13009A   26158.26460882  .00000101  00000+0  53067-4 0  9993
2 39086  98.5558 344.9578 0001268 355.4175   4.6997 14.32853562694187
GAOFEN-1                
1 39150U 13018A   26158.30450387  .00000286  00000+0  48224-4 0  9992
2 39150  97.9092 230.5729 0015978 301.4702  58.4946 14.76526081706785
VNREDSAT 1              
1 39160U 13021B   26158.25276461  .00000536  00000+0  10886-3 0  9990
2 39160  97.9080 212.0501 0001671  88.8379 271.3016 14.64846393698835
ARIRANG-5 (KOMPSAT-5)   
1 39227U 13042A   26158.25622502  .00001905  00000+0  14025-3 0  9998
2 39227  97.6213 345.0958 0004060 146.3899 213.7586 15.04553095702364
SKYSAT-A                
1 39418U 13066C   26157.67525345  .00003714  00000+0  21339-3 0  9994
2 39418  97.3819 207.4075 0021109 355.2828   4.8201 15.12918391686897
DUBAISAT-2              
1 39419U 13066D   26158.26422801  .00004524  00000+0  28095-3 0  9990
2 39419  97.4563 148.6695 0012871  70.3654 289.8964 15.10106328684893
GPM-CORE                
1 39574U 14009C   26157.98097821  .00007930  00000+0  16964-3 0  9994
2 39574  64.9731 342.3223 0012060 269.6038  90.3720 15.45426483696231
SENTINEL-1A             
1 39634U 14016A   26158.28750090  .00000096  00000+0  29966-4 0  9990
2 39634  98.1781 165.9650 0001427  80.1336 280.0025 14.59199823648576
KAZEOSAT 1              
1 39731U 14024A   26158.23844935  .00000209  00000+0  76747-4 0  9999
2 39731  98.3202 230.9327 0001492  75.3627 284.7728 14.42076354637124
