OBJECT_NAME,OBJECT_ID,EPOCH,MEAN_MOTION,ECCENTRICITY,INCLINATION,RA_OF_ASC_NODE,ARG_OF_PERICENTER,MEAN_ANOMALY,EPHEMERIS_TYPE,CLASSIFICATION_TYPE,NORAD_CAT_ID,ELEMENT_SET_NO,REV_AT_EPOCH,BSTAR,MEAN_MOTION_DOT,MEAN_MOTION_DDOT
DUBAISAT-1,2009-041B,2026-06-07T02:49:31.029600,14.75108062,.00117452,98.0040,291.4868,102.2769,257.9755,0,U,35682,999,90361,.13766666E-3,.878E-5,0
OCEANSAT-2,2009-051A,2026-06-07T06:18:45.378144,13.99663733,.00145974,98.2323,146.1045,266.4813,93.4684,0,U,35931,999,87794,.12371853E-3,.143E-5,0
WORLDVIEW-2 (WV-2),2009-055A,2026-06-07T00:06:04.975200,14.37896422,.00032166,98.4736,231.5940,245.6430,114.4421,0,U,35946,999,87418,.54685092E-4,.121E-5,0
SMOS,2009-059A,2026-06-06T11:41:32.734752,14.39766844,.00013403,98.4426,344.9790,91.3547,268.7794,0,U,36036,999,87191,.99006893E-4,.267E-5,0
YAOGAN-7,2009-069A,2026-06-06T15:54:46.042560,14.77999154,.00259795,98.0084,43.5945,74.1214,286.2857,0,U,36110,999,88807,.81100931E-4,.535E-5,0
TANDEM-X,2010-030A,2026-06-06T10:55:28.703712,15.19152152,.0001794,97.4458,165.3146,98.1824,261.9614,0,U,36605,999,88501,.44865E-4,.875E-5,0
CARTOSAT-2B,2010-035A,2026-06-07T06:09:50.616576,14.78650270,.00103754,97.9952,208.8695,217.9785,142.0695,0,U,36795,999,85838,.13910765E-3,.967E-5,0
YAOGAN-10,2010-038A,2026-06-07T07:50:13.398144,14.85322460,.00017232,97.8979,181.8102,88.1800,42.0405,0,U,36834,999,85574,.32016805E-3,.2698E-4,0
COSMO-SKYMED 4,2010-060A,2026-06-07T05:59:29.059296,14.82159734,.00014254,97.8888,341.9934,83.5590,276.5785,0,U,37216,999,84309,.15362918E-4,.7E-6,0
RESOURCESAT-2,2011-015A,2026-06-06T22:53:37.448160,14.21604292,.00101466,98.7645,225.4660,288.5617,71.4458,0,U,37387,999,78472,.59076823E-4,.85E-6,0
HAIYANG-2A,2011-043A,2026-06-07T06:48:58.872672,13.74549310,.00062438,99.3395,161.1783,111.1043,249.0774,0,U,37781,999,74529,-.12115343E-3,-.158E-5,0
RASAT,2011-044D,2026-06-07T07:03:18.031680,14.68157208,.00194725,98.0570,249.8420,221.2540,193.5041,0,U,37791,999,79173,.10015739E-3,.528E-5,0
SRMSAT,2011-058D,2026-06-06T06:31:30.735264,14.11573396,.00119474,19.9704,125.5359,84.3565,18.6414,0,U,37841,999,75627,.65061068E-4,.385E-5,0
PLEIADES 1A,2011-076F,2026-06-07T06:04:22.785600,14.58565114,.0001482,98.1972,233.4889,96.8767,356.1046,0,U,38012,999,77054,.91638641E-4,.38E-5,0
ZIYUAN 1-02C (ZY 1-02C),2011-079A,2026-06-07T06:30:28.219680,14.38206923,.0006158,98.4068,225.7866,349.5353,98.7574,0,U,38038,999,75778,.15401379E-3,.425E-5,0
ARIRANG-3 (KOMPSAT-3),2012-025B,2026-06-07T05:55:49.952352,14.62197795,.0006229,98.1172,115.8790,134.9916,225.1792,0,U,38338,999,74989,.11549408E-3,.535E-5,0
EXACTVIEW-1 (ADS-1B),2012-039C,2026-06-07T01:25:42.465792,14.24981592,.00106133,98.9766,275.2216,195.2946,164.7913,0,U,38709,999,72126,.75160364E-4,.129E-5,0
SPOT 6,2012-047A,2026-06-07T06:00:54.245376,14.58557324,.00014398,98.2116,225.6755,93.2530,266.8834,0,U,38755,999,73160,.84314357E-4,.346E-5,0
PLEIADES 1B,2012-068A,2026-06-07T06:28:07.078368,14.58554881,.00015767,98.1942,233.4575,95.6797,264.4582,0,U,39019,999,71940,.93055549E-4,.387E-5,0
GOKTURK 2,2012-073A,2026-06-07T05:56:56.459616,14.75533148,.00019439,97.6823,356.1773,62.0161,298.1246,0,U,39030,999,72304,.10708208E-3,.682E-5,0
LANDSAT 8,2013-008A,2026-06-06T22:19:32.709216,14.57111856,.00014591,98.2302,228.1869,96.6119,263.5245,0,U,39084,999,69640,.83480754E-4,.331E-5,0
SARAL,2013-009A,2026-06-07T06:21:02.202048,14.32853562,.00012685,98.5558,344.9578,355.4175,4.6997,0,U,39086,999,69418,.53067008E-4,.101E-5,0
GAOFEN-1,2013-018A,2026-06-07T07:18:29.134368,14.76526081,.00159785,97.9092,230.5729,301.4702,58.4946,0,U,39150,999,70678,.48224441E-4,.286E-5,0
VNREDSAT 1,2013-021B,2026-06-07T06:03:58.862304,14.64846393,.00016716,97.9080,212.0501,88.8379,271.3016,0,U,39160,999,69883,.10885647E-3,.536E-5,0
ARIRANG-5 (KOMPSAT-5),2013-042A,2026-06-07T06:08:57.841728,15.04553095,.00040601,97.6213,345.0958,146.3899,213.7586,0,U,39227,999,70236,.14024578E-3,.1905E-4,0
SKYSAT-A,2013-066C,2026-06-06T16:12:21.898080,15.12918391,.00211088,97.3819,207.4075,355.2828,4.8201,0,U,39418,999,68689,.21339405E-3,.3714E-4,0
DUBAISAT-2,2013-066D,2026-06-07T06:20:29.300064,15.10106328,.00128712,97.4563,148.6695,70.3654,289.8964,0,U,39419,999,68489,.28095261E-3,.4524E-4,0
GPM-CORE,2014-009C,2026-06-06T23:32:36.517344,15.45426483,.00120601,64.9731,342.3223,269.6038,90.3720,0,U,39574,999,69623,.16964096E-3,.793E-4,0
SENTINEL-1A,2014-016A,2026-06-07T06:54:00.077760,14.59199823,.00014279,98.1781,165.9650,80.1336,280.0025,0,U,39634,999,64857,.29965737E-4,.96E-6,0
KAZEOSAT 1,2014-024A,2026-06-07T05:43:22.023840,14.42076354,.00014925,98.3202,230.9327,75.3627,284.7728,0,U,39731,999,63712,.76746955E-4,.209E-5,0
